{
"type": "FeatureCollection",
"name": "Airport",
"crs": { "type": "name", "properties": { "name": "urn:ogc:def:crs:OGC:1.3:CRS84" } },
"features": [
{"type":"Feature","properties":{"name":"Tuticorin Airport"},"geometry":{"type":"MultiPolygon","coordinates":[[[[78.0078166,8.7248885],[78.0136003,8.7236007],[78.0145571,8.7234133],[78.0160246,8.7231414],[78.0173645,8.7228925],[78.0167372,8.7202824],[78.0185636,8.7200434],[78.0196231,8.7199743],[78.0201475,8.7216752],[78.0201644,8.722388],[78.0246879,8.721494],[78.0269403,8.7211236],[78.031719,8.7201805],[78.0342961,8.7195986],[78.0356419,8.7193658],[78.0412971,8.7184651],[78.0428293,8.7179974],[78.0471279,8.7172366],[78.0474348,8.7192793],[78.0474375,8.7197442],[78.0473563,8.7202975],[78.047246,8.7203006],[78.0473021,8.7221507],[78.0423488,8.7226504],[78.0401801,8.7230201],[78.0401148,8.7227108],[78.0335292,8.7238513],[78.0319492,8.7241218],[78.0301526,8.7243598],[78.0286999,8.7245211],[78.028923,8.725641],[78.0291107,8.726614],[78.0278713,8.7268613],[78.0280078,8.7303116],[78.0231893,8.730776],[78.0217584,8.7312443],[78.0217408,8.7310639],[78.0209952,8.7313167],[78.0214492,8.7341022],[78.0212465,8.7356144],[78.0166726,8.7344147],[78.0152837,8.7339034],[78.0152699,8.7337591],[78.014903,8.7326486],[78.0146567,8.730395],[78.0145917,8.729671],[78.0144583,8.7296767],[78.0142678,8.7282847],[78.01225,8.7283738],[78.0095178,8.7283102],[78.0090835,8.7283308],[78.0078166,8.7248885]]]]}}
]
}
