{
"type": "FeatureCollection",
"name": "Educational_Institution",
"crs": { "type": "name", "properties": { "name": "urn:ogc:def:crs:OGC:1.3:CRS84" } },
"features": [
{"type":"Feature","properties":{"name":"Pope Memorial Higher Secondary school"},"geometry":{"type":"Point","coordinates":[78.0285152,8.6809003]}},
{"type":"Feature","properties":{"name":"St. Francis Xavier Higher Secondary School"},"geometry":{"type":"Point","coordinates":[78.1552135,8.8048595]}},
{"type":"Feature","properties":{"name":"St. Charles Middle School"},"geometry":{"type":"Point","coordinates":[78.135449,8.7969336]}},
{"type":"Feature","properties":{"name":"St. Xavier's Higher Secondary School"},"geometry":{"type":"Point","coordinates":[78.1551648,8.7972628]}},
{"type":"Feature","properties":{"name":"V. O. Chidambaram College"},"geometry":{"type":"Point","coordinates":[78.1276095,8.792545]}},
{"type":"Feature","properties":{"name":"Auxilium Matric Hr Sec School"},"geometry":{"type":"Point","coordinates":[78.1604598,8.8165489]}},
{"type":"Feature","properties":{"name":"Udhumaniya Primary School Old"},"geometry":{"type":"Point","coordinates":[77.946455,8.604436]}},
{"type":"Feature","properties":{"name":"The Vikasa Sainik School"},"geometry":{"type":"Point","coordinates":[78.0317611,8.6913691]}},
{"type":"Feature","properties":{"name":"Holycross Engineering College"},"geometry":{"type":"Point","coordinates":[77.9732227,8.6994648]}},
{"type":"Feature","properties":{"name":"Amrita Vidyalayam Senior Secondary School"},"geometry":{"type":"Point","coordinates":[78.0714607,8.763932]}},
{"type":"Feature","properties":{"name":"Carmalite Convent"},"geometry":{"type":"Point","coordinates":[78.0382475,8.7413252]}},
{"type":"Feature","properties":{"name":"Grace College of Engineering"},"geometry":{"type":"Point","coordinates":[78.1087524,8.72462]}},
{"type":"Feature","properties":{"name":"B. M. C. Matriculation Higher Secondary School"},"geometry":{"type":"Point","coordinates":[78.123164,8.8044916]}},
{"type":"Feature","properties":{"name":"Jehovah Jireh Matric Hr Sec School"},"geometry":{"type":"Point","coordinates":[78.0381181,8.9174786]}},
{"type":"Feature","properties":{"name":"St. Mary's College"},"geometry":{"type":"Point","coordinates":[78.1602032,8.8113799]}},
{"type":"Feature","properties":{"name":"Government Higher Secondary School, Umarikadu"},"geometry":{"type":"Point","coordinates":[78.0589538,8.6266422]}},
{"type":"Feature","properties":{"name":"UDHUMANIYA PRIMARY SCHOOL"},"geometry":{"type":"Point","coordinates":[77.9464551,8.6044281]}},
{"type":"Feature","properties":{"name":"UDHUMANIYA PRIMARY SCHOOL NEW"},"geometry":{"type":"Point","coordinates":[77.9464477,8.6043199]}},
{"type":"Feature","properties":{"name":"Meerania Middle School"},"geometry":{"type":"Point","coordinates":[77.9471151,8.6043111]}},
{"type":"Feature","properties":{"name":"Kamlavati Higher Secondary School"},"geometry":{"type":"Point","coordinates":[78.0855215,8.5866289]}},
{"type":"Feature","properties":{"name":"Infant Jesus College of Engineering"},"geometry":{"type":"Point","coordinates":[77.8813777,8.7334076]}},
{"type":"Feature","properties":{"name":"St.Luke's Nursery and Primary School"},"geometry":{"type":"Point","coordinates":[78.0201741,8.6293445]}},
{"type":"Feature","properties":{"name":"St. Mother Theresa Engineering College"},"geometry":{"type":"Point","coordinates":[78.0142891,8.7369064]}},
{"type":"Feature","properties":{"name":"A. P. C. Mahalaxmi College for Women"},"geometry":{"type":"Point","coordinates":[78.1294246,8.8271407]}},
{"type":"Feature","properties":{"name":"Geetha Jeevan College Of Arts And Science"},"geometry":{"type":"Point","coordinates":[78.0937934,8.9183799]}},
{"type":"Feature","properties":{"name":"Kamaraj Matriculation School"},"geometry":{"type":"Point","coordinates":[78.1396764,8.8371425]}},
{"type":"Feature","properties":{"name":"Vikasa Primary School"},"geometry":{"type":"Point","coordinates":[78.12306,8.8027913]}},
{"type":"Feature","properties":{"name":"Johns Matriculation School"},"geometry":{"type":"Point","coordinates":[78.1241083,8.8004174]}},
{"type":"Feature","properties":{"name":"Sri Pathirakaliamman Nadar Middle School"},"geometry":{"type":"Point","coordinates":[78.1329027,8.8344672]}},
{"type":"Feature","properties":{"name":"A.P.C. Veerabahu Matriculation Higher Secondary School"},"geometry":{"type":"Point","coordinates":[78.1279111,8.7960065]}},
{"type":"Feature","properties":{"name":"X'an Matriculation Higher Secondary School"},"geometry":{"type":"Point","coordinates":[78.1335988,8.7987617]}},
{"type":"Feature","properties":{"name":"Crescent Matriculation Higher Secondary School"},"geometry":{"type":"Point","coordinates":[78.13421,8.7977669]}},
{"type":"Feature","properties":{"name":"Subbiah Vidyalayam Girl's Higher Secondary School"},"geometry":{"type":"Point","coordinates":[78.13935,8.800757]}},
{"type":"Feature","properties":{"name":"Ice - King of Kings Matriculation Higher Secondary School"},"geometry":{"type":"Point","coordinates":[78.1220077,8.8116758]}},
{"type":"Feature","properties":{"name":"Israel Memorial Matriculation School"},"geometry":{"type":"Point","coordinates":[78.0284532,8.6870843]}},
{"type":"Feature","properties":{"name":"அரசு மேல்நிலைப் பள்ளி"},"geometry":{"type":"Point","coordinates":[77.8615125,8.6520579]}},
{"type":"Feature","properties":{"name":"Sri Kumara Guru Swamigal Higher Secondary School"},"geometry":{"type":"Point","coordinates":[77.913338,8.6304348]}},
{"type":"Feature","properties":{"name":"Seventh Day Adventist Matriculation School"},"geometry":{"type":"Point","coordinates":[77.9222692,8.6342819]}},
{"type":"Feature","properties":{"name":"Thillai Nayagam Primary School "},"geometry":{"type":"Point","coordinates":[78.0022992,8.7060999]}},
{"type":"Feature","properties":{"name":"Rajalakshmi College of Arts and Science"},"geometry":{"type":"Point","coordinates":[78.0095862,8.7353194]}},
{"type":"Feature","properties":{"name":"Tucker Higher Secondary School"},"geometry":{"type":"Point","coordinates":[77.9986892,8.6468512]}},
{"type":"Feature","properties":{"name":"R.C. Middle School"},"geometry":{"type":"Point","coordinates":[78.0242689,8.6747117]}},
{"type":"Feature","properties":{"name":"Grace College of Engineering"},"geometry":{"type":"Point","coordinates":[78.1081705,8.7243136]}},
{"type":"Feature","properties":{"name":"St. Mary's Boys Higher Secondary School"},"geometry":{"type":"Point","coordinates":[78.1263736,8.7961301]}},
{"type":"Feature","properties":{"name":"Bell Matriculation Higher Secondary School"},"geometry":{"type":"Point","coordinates":[78.1339596,8.8057328]}},
{"type":"Feature","properties":{"name":"SDR School"},"geometry":{"type":"Point","coordinates":[78.0941128,8.7769647]}},
{"type":"Feature","properties":{"name":"VICTORIA SCHOOL CBSE"},"geometry":{"type":"Point","coordinates":[78.1611417,8.8076407]}},
{"type":"Feature","properties":{"name":"ஊராட்சி ஒன்றிய நடுநிலைப்பள்ளி"},"geometry":{"type":"Point","coordinates":[77.9648605,8.6909322]}},
{"type":"Feature","properties":{"name":"Bishop Caldwell College"},"geometry":{"type":"Point","coordinates":[78.0717325,8.7610321]}},
{"type":"Feature","properties":{"name":"V. O. C. Government Higher Secondary School"},"geometry":{"type":"Point","coordinates":[78.0195085,8.9068618]}},
{"type":"Feature","properties":{"name":"மாநகராட்சி நடுநிலைப்பள்ளி"},"geometry":{"type":"Point","coordinates":[78.1425724,8.7953601]}},
{"type":"Feature","properties":{"name":"Bharat Ratna Kamarajar Matriculation Higher Secondary School"},"geometry":{"type":"Point","coordinates":[78.1435449,8.7932234]}},
{"type":"Feature","properties":{"name":"Bala Akshaya Nursery & Primary School"},"geometry":{"type":"Point","coordinates":[78.1433021,8.7961585]}},
{"type":"Feature","properties":{"name":"St. Lasalle Higher Secondary School"},"geometry":{"type":"Point","coordinates":[78.1543679,8.7987921]}},
{"type":"Feature","properties":{"name":"Dasnevis Matha Girls Higher Secondary School"},"geometry":{"type":"Point","coordinates":[78.1556537,8.7987007]}},
{"type":"Feature","properties":{"name":"Sri Saradha Nursery & Primary School"},"geometry":{"type":"Point","coordinates":[78.1416824,8.7966567]}},
{"type":"Feature","properties":{"name":"Karapettai Nadar Higher Secondary School"},"geometry":{"type":"Point","coordinates":[78.1532812,8.7964476]}},
{"type":"Feature","properties":{"name":"Twinkle Primary School"},"geometry":{"type":"Point","coordinates":[78.1361588,8.793478]}},
{"type":"Feature","properties":{"name":"The Vikasa School"},"geometry":{"type":"Point","coordinates":[78.1243601,8.7998103]}},
{"type":"Feature","properties":{"name":"SAV Higher Sec School"},"geometry":{"type":"Point","coordinates":[78.1495114,8.8079172]}},
{"type":"Feature","properties":{"name":"Dr BR Ambedkar Memorial harbour Metric School"},"geometry":{"type":"Point","coordinates":[78.1734357,8.7510395]}},
{"type":"Feature","properties":{"name":"S Shunmuga Sundara Nadar HSS"},"geometry":{"type":"Point","coordinates":[78.06917,8.617908]}},
{"type":"Feature","properties":{"name":"Sevite School"},"geometry":{"type":"Point","coordinates":[78.076464,8.7639633]}}
]
}
