{
"type": "FeatureCollection",
"name": "Railway_Stations",
"crs": { "type": "name", "properties": { "name": "urn:ogc:def:crs:OGC:1.3:CRS84" } },
"features": [
{"type":"Feature","properties":{"name":"N. Panakudi","platforms":null,"railway":"station"},"geometry":{"type":"Point","coordinates":[77.5814273,8.3146578]}},
{"type":"Feature","properties":{"name":"Nanguneri","platforms":null,"railway":"station"},"geometry":{"type":"Point","coordinates":[77.6632221,8.4898391]}},
{"type":"Feature","properties":{"name":"Tiruchendur","platforms":null,"railway":"station"},"geometry":{"type":"Point","coordinates":[78.1173,8.5024637]}},
{"type":"Feature","properties":{"name":"Valliyur","platforms":null,"railway":"station"},"geometry":{"type":"Point","coordinates":[77.6142866,8.3768343]}},
{"type":"Feature","properties":{"name":"Kadambur","platforms":null,"railway":"station"},"geometry":{"type":"Point","coordinates":[77.8635153,9.0011547]}},
{"type":"Feature","properties":{"name":"Vanchi Maniyachchi Junction","platforms":null,"railway":"station"},"geometry":{"type":"Point","coordinates":[77.891377,8.881039]}},
{"type":"Feature","properties":{"name":"Pandiyapuram","platforms":null,"railway":"station"},"geometry":{"type":"Point","coordinates":[77.9390634,8.862358]}},
{"type":"Feature","properties":{"name":"Kailasapuram","platforms":null,"railway":"halt"},"geometry":{"type":"Point","coordinates":[77.9922788,8.8494517]}},
{"type":"Feature","properties":{"name":"Tattapparai","platforms":null,"railway":"station"},"geometry":{"type":"Point","coordinates":[78.0231972,8.827761]}},
{"type":"Feature","properties":{"name":"Milavittan","platforms":null,"railway":"station"},"geometry":{"type":"Point","coordinates":[78.0877263,8.811644]}},
{"type":"Feature","properties":{"name":"Tuti Melur","platforms":null,"railway":"halt"},"geometry":{"type":"Point","coordinates":[78.1470689,8.8081882]}},
{"type":"Feature","properties":{"name":"Tuticorin","platforms":null,"railway":"station"},"geometry":{"type":"Point","coordinates":[78.1553488,8.8059955]}},
{"type":"Feature","properties":{"name":"Gangaikondan","platforms":null,"railway":"station"},"geometry":{"type":"Point","coordinates":[77.7842547,8.8291191]}},
{"type":"Feature","properties":{"name":"Naraikkinar","platforms":null,"railway":"station"},"geometry":{"type":"Point","coordinates":[77.8417974,8.8624285]}},
{"type":"Feature","properties":{"name":"Talaiyuthu","platforms":null,"railway":"station"},"geometry":{"type":"Point","coordinates":[77.7302314,8.7842548]}},
{"type":"Feature","properties":{"name":"Tirunelveli Junction","platforms":null,"railway":"station"},"geometry":{"type":"Point","coordinates":[77.708336,8.7312234]}},
{"type":"Feature","properties":{"name":"Tirunelveli Town","platforms":null,"railway":"station"},"geometry":{"type":"Point","coordinates":[77.6868543,8.7200862]}},
{"type":"Feature","properties":{"name":"Pettai","platforms":null,"railway":"station"},"geometry":{"type":"Point","coordinates":[77.6537065,8.7189347]}},
{"type":"Feature","properties":{"name":"Cheranmahadevi","platforms":null,"railway":"station"},"geometry":{"type":"Point","coordinates":[77.5617186,8.6793185]}},
{"type":"Feature","properties":{"name":"Karaikkurichchi","platforms":null,"railway":"halt"},"geometry":{"type":"Point","coordinates":[77.5368263,8.6791295]}},
{"type":"Feature","properties":{"name":"Viravanallur","platforms":null,"railway":"halt"},"geometry":{"type":"Point","coordinates":[77.512316,8.6849635]}},
{"type":"Feature","properties":{"name":"Kallidaikurichi","platforms":null,"railway":"station"},"geometry":{"type":"Point","coordinates":[77.4651097,8.6808989]}},
{"type":"Feature","properties":{"name":"Ambasamudram","platforms":null,"railway":"station"},"geometry":{"type":"Point","coordinates":[77.4382732,8.7082538]}},
{"type":"Feature","properties":{"name":"Palayankottai","platforms":null,"railway":"station"},"geometry":{"type":"Point","coordinates":[77.7366822,8.709992]}},
{"type":"Feature","properties":{"name":"Seydunganallur","platforms":null,"railway":"station"},"geometry":{"type":"Point","coordinates":[77.8244303,8.6630844]}},
{"type":"Feature","properties":{"name":"Thathankulam","platforms":null,"railway":"station"},"geometry":{"type":"Point","coordinates":[77.8411086,8.6298819]}},
{"type":"Feature","properties":{"name":"Srivaikuntam","platforms":null,"railway":"station"},"geometry":{"type":"Point","coordinates":[77.9058407,8.6227368]}},
{"type":"Feature","properties":{"name":"Nazareth","platforms":null,"railway":"station"},"geometry":{"type":"Point","coordinates":[77.9758266,8.5643969]}},
{"type":"Feature","properties":{"name":"Alwar Tirunagari","platforms":null,"railway":"station"},"geometry":{"type":"Point","coordinates":[77.9427499,8.6015776]}},
{"type":"Feature","properties":{"name":"Kachchanavilai","platforms":null,"railway":"station"},"geometry":{"type":"Point","coordinates":[78.0206161,8.5783118]}},
{"type":"Feature","properties":{"name":"Kurumbur","platforms":null,"railway":"station"},"geometry":{"type":"Point","coordinates":[78.0394315,8.5856868]}},
{"type":"Feature","properties":{"name":"Arumuganeri","platforms":null,"railway":"station"},"geometry":{"type":"Point","coordinates":[78.092,8.5794484]}},
{"type":"Feature","properties":{"name":"Kayalpattinam","platforms":null,"railway":"station"},"geometry":{"type":"Point","coordinates":[78.1003644,8.5677868]}},
{"type":"Feature","properties":{"name":"Illavalengal","platforms":null,"railway":"halt"},"geometry":{"type":"Point","coordinates":[77.8725007,8.9385061]}},
{"type":"Feature","properties":{"name":"Dalapatisamudram","platforms":null,"railway":"station"},"geometry":{"type":"Point","coordinates":[77.6382558,8.4310991]}},
{"type":"Feature","properties":{"name":"Melappalaiyam","platforms":null,"railway":"halt"},"geometry":{"type":"Point","coordinates":[77.7002195,8.7045424]}},
{"type":"Feature","properties":{"name":"Sengulam","platforms":null,"railway":"station"},"geometry":{"type":"Point","coordinates":[77.6829557,8.6067941]}}
]
}
