{
"type": "FeatureCollection",
"name": "SubStations",
"crs": { "type": "name", "properties": { "name": "urn:ogc:def:crs:OGC:1.3:CRS84" } },
"features": [
{"type":"Feature","properties":{"id":"way/309279884","cables":null,"capacity":null,"name":"Zirconium","voltage":"110000"},"geometry":{"type":"MultiPolygon","coordinates":[[[[78.1244439,8.6955612],[78.1254426,8.6947756],[78.126231,8.695755],[78.1252322,8.6965406],[78.1244439,8.6955612]]]]}},
{"type":"Feature","properties":{"id":"way/309279885","cables":null,"capacity":null,"name":"DCW","voltage":"110000"},"geometry":{"type":"MultiPolygon","coordinates":[[[[78.0961192,8.5942492],[78.0966989,8.5944462],[78.0965998,8.594731],[78.0960202,8.594534],[78.0961192,8.5942492]]]]}},
{"type":"Feature","properties":{"id":"way/309279889","cables":null,"capacity":null,"name":"HWP","voltage":"110000"},"geometry":{"type":"MultiPolygon","coordinates":[[[[78.1460575,8.7410334],[78.1460038,8.740694],[78.1464937,8.7406183],[78.1465473,8.7409577],[78.1464128,8.7409785],[78.1464339,8.7411122],[78.1463176,8.7411302],[78.1462964,8.7409965],[78.1460575,8.7410334]]]]}},
{"type":"Feature","properties":{"id":"way/309279890","cables":null,"capacity":null,"name":"TAC","voltage":"110000"},"geometry":{"type":"MultiPolygon","coordinates":[[[[78.1475105,8.7414831],[78.1474376,8.7410311],[78.1479579,8.7409491],[78.1480309,8.7414011],[78.1475105,8.7414831]]]]}},
{"type":"Feature","properties":{"id":"way/309279891","cables":null,"capacity":null,"name":"Ayyanarpuram","voltage":"110000"},"geometry":{"type":"MultiPolygon","coordinates":[[[[78.1478174,8.8588533],[78.1478026,8.8578519],[78.1488457,8.8578306],[78.1488943,8.8587973],[78.1478174,8.8588533]]]]}},
{"type":"Feature","properties":{"id":"way/309279892","cables":null,"capacity":null,"name":"Arumuganeri","voltage":"110000"},"geometry":{"type":"MultiPolygon","coordinates":[[[[78.083861,8.5881616],[78.0841224,8.5874502],[78.0852102,8.5873992],[78.0851797,8.5881786],[78.083861,8.5881616]]]]}},
{"type":"Feature","properties":{"id":"way/309279898","cables":null,"capacity":null,"name":"Tuticorin Auto","voltage":"230000;110000"},"geometry":{"type":"MultiPolygon","coordinates":[[[[78.1485967,8.7420816],[78.1488543,8.7436924],[78.1473066,8.7439131],[78.1448143,8.7443111],[78.1445414,8.7427173],[78.1485967,8.7420816]]]]}},
{"type":"Feature","properties":{"id":"way/309304127","cables":null,"capacity":null,"name":"Meelavittan","voltage":"230000;110000"},"geometry":{"type":"MultiPolygon","coordinates":[[[[78.0967283,8.8138026],[78.0974796,8.8136511],[78.0974168,8.8134187],[78.0981014,8.8132752],[78.0982132,8.8131822],[78.0986162,8.8130372],[78.098712,8.8140467],[78.0990534,8.8140627],[78.0990707,8.8143649],[78.0990939,8.8147694],[78.0970241,8.8151645],[78.0968905,8.8143479],[78.0970489,8.8142649],[78.0967283,8.8138026]]]]}},
{"type":"Feature","properties":{"id":"way/309304141","cables":null,"capacity":null,"name":"Ottapidaram","voltage":"110000"},"geometry":{"type":"MultiPolygon","coordinates":[[[[78.0202514,8.9041632],[78.0207922,8.9041469],[78.020816,8.9044985],[78.0210765,8.9045117],[78.0210879,8.9048671],[78.0203017,8.9048935],[78.0202511,8.9043166],[78.0202514,8.9041632]]]]}},
{"type":"Feature","properties":{"id":"way/323661901","cables":null,"capacity":null,"name":"NTPL","voltage":"400000;230000"},"geometry":{"type":"MultiPolygon","coordinates":[[[[78.1666785,8.7602215],[78.1675107,8.7600901],[78.1679268,8.7629994],[78.1671295,8.7631176],[78.1666785,8.7602215]]]]}},
{"type":"Feature","properties":{"id":"way/385432380","cables":null,"capacity":null,"name":"Vagaikulam","voltage":"110000"},"geometry":{"type":"MultiPolygon","coordinates":[[[[77.9917418,8.7520488],[77.9929967,8.7520776],[77.9928292,8.7529345],[77.9917873,8.7529399],[77.9917418,8.7520488]]]]}},
{"type":"Feature","properties":{"id":"way/385432381","cables":null,"capacity":null,"name":"Thoothukudi IBPGL","voltage":null},"geometry":{"type":"MultiPolygon","coordinates":[[[[78.1064429,8.8642213],[78.1102857,8.8642513],[78.1108755,8.8679006],[78.1064277,8.867833],[78.1064429,8.8642213]]]]}},
{"type":"Feature","properties":{"id":"way/385432384","cables":null,"capacity":null,"name":"Sterlite CPP","voltage":"230000"},"geometry":{"type":"MultiPolygon","coordinates":[[[[78.0877548,8.8181807],[78.0874588,8.8171053],[78.0883154,8.8168751],[78.0886114,8.8179505],[78.0877548,8.8181807]]]]}},
{"type":"Feature","properties":{"id":"way/385432387","cables":null,"capacity":null,"name":"Tuticorin SIPCOT","voltage":"110000"},"geometry":{"type":"MultiPolygon","coordinates":[[[[78.0851257,8.8208898],[78.0846478,8.82023],[78.0854408,8.8200054],[78.0860261,8.8198692],[78.0862105,8.8207235],[78.0851257,8.8208898]]]]}},
{"type":"Feature","properties":{"id":"way/385432388","cables":null,"capacity":null,"name":"Thoothukudi IBTPL power station","voltage":null},"geometry":{"type":"MultiPolygon","coordinates":[[[[78.0521114,8.8816224],[78.0574452,8.8821501],[78.0568037,8.8886514],[78.0560392,8.8885714],[78.0560468,8.8885163],[78.0514598,8.8880636],[78.0521114,8.8816224]]]]}},
{"type":"Feature","properties":{"id":"way/385432389","cables":null,"capacity":null,"name":"Sterlite Switching Station","voltage":"230000"},"geometry":{"type":"MultiPolygon","coordinates":[[[[78.0752226,8.8183878],[78.0759277,8.8182102],[78.076058,8.8187118],[78.0756897,8.8188043],[78.0755973,8.8187205],[78.0753188,8.8187856],[78.0752226,8.8183878]]]]}},
{"type":"Feature","properties":{"id":"way/421884343","cables":null,"capacity":null,"name":"Sterlite Industry","voltage":"230000"},"geometry":{"type":"MultiPolygon","coordinates":[[[[78.0791436,8.8188731],[78.079996,8.8186378],[78.0803008,8.8196347],[78.0793885,8.8198745],[78.0791436,8.8188731]]]]}},
{"type":"Feature","properties":{"id":"way/476181178","cables":null,"capacity":null,"name":"Tuticorin Town","voltage":"110000"},"geometry":{"type":"MultiPolygon","coordinates":[[[[78.1382053,8.8119216],[78.137815,8.8115856],[78.1384601,8.8108779],[78.138503,8.8115982],[78.1382053,8.8119216]]]]}},
{"type":"Feature","properties":{"id":"way/618762293","cables":null,"capacity":null,"name":"Siemens Gamesa (Ottanatham) Sub Stataion","voltage":"220000"},"geometry":{"type":"MultiPolygon","coordinates":[[[[77.9176489,8.904684],[77.9176864,8.9033988],[77.9189417,8.9034571],[77.9191536,8.9034677],[77.9191053,8.9047661],[77.9176489,8.904684]]]]}},
{"type":"Feature","properties":{"id":"way/618762295","cables":null,"capacity":null,"name":"Thennampatti","voltage":"400000;230000;110000"},"geometry":{"type":"MultiPolygon","coordinates":[[[[77.8674138,8.9093901],[77.8675747,8.9081818],[77.8676793,8.9072517],[77.8679126,8.907249],[77.8680065,8.9065866],[77.8677812,8.906576],[77.867867,8.905887],[77.8699297,8.9055796],[77.8699136,8.9054286],[77.8723195,8.9052696],[77.8722739,8.9066396],[77.8721774,8.906629],[77.8722471,8.9081261],[77.8712064,8.9081632],[77.8701121,8.9082904],[77.8701737,8.9088045],[77.8703937,8.9087648],[77.8704929,8.9091967],[77.8695649,8.9093769],[77.8693986,8.9089237],[77.8686422,8.9091755],[77.8674138,8.9093901]]]]}},
{"type":"Feature","properties":{"id":"way/661590307","cables":null,"capacity":null,"name":"Vanchi Maniyachchi Traction","voltage":"110000"},"geometry":{"type":"MultiPolygon","coordinates":[[[[77.8910797,8.879329],[77.8913933,8.8783974],[77.8918412,8.8785447],[77.8915275,8.8794762],[77.8910797,8.879329]]]]}},
{"type":"Feature","properties":{"id":"way/662798206","cables":null,"capacity":null,"name":"NTPL Thermal Power Station","voltage":null},"geometry":{"type":"MultiPolygon","coordinates":[[[[78.1713591,8.7585569],[78.1718606,8.7616765],[78.1712007,8.7617826],[78.1715682,8.7639967],[78.1691435,8.7643645],[78.1667805,8.7647039],[78.1666544,8.7645952],[78.1658685,8.7593596],[78.1659597,8.7592218],[78.1695163,8.7586836],[78.1695405,8.7588294],[78.1713591,8.7585569]]]]}},
{"type":"Feature","properties":{"id":"way/662798207","cables":null,"capacity":null,"name":"Tuticorin Thermal Power Station","voltage":null},"geometry":{"type":"MultiPolygon","coordinates":[[[[78.173763,8.7647872],[78.173254,8.7615118],[78.178063,8.76075],[78.1785542,8.7640631],[78.173763,8.7647872]]]]}},
{"type":"Feature","properties":{"id":"way/690505444","cables":null,"capacity":null,"name":"TCTPL","voltage":"110000"},"geometry":{"type":"MultiPolygon","coordinates":[[[[78.1986226,8.7827142],[78.1986207,8.7824777],[78.198791,8.7824763],[78.1987929,8.7827129],[78.1986226,8.7827142]]]]}},
{"type":"Feature","properties":{"id":"way/733764034","cables":null,"capacity":null,"name":"Coastal","voltage":"400000"},"geometry":{"type":"MultiPolygon","coordinates":[[[[78.1430536,8.9148382],[78.1437403,8.9155271],[78.1430322,8.9161896],[78.1423643,8.9155165],[78.1430536,8.9148382]]]]}},
{"type":"Feature","properties":{"id":"way/733764035","cables":null,"capacity":null,"name":"Mutiara Thermal Power Plant","voltage":null},"geometry":{"type":"MultiPolygon","coordinates":[[[[78.1415141,8.9033299],[78.1422168,8.9031841],[78.1434587,8.9032292],[78.1434855,8.90426],[78.1439683,8.9042282],[78.1447944,8.9040745],[78.1449151,8.9051503],[78.1457251,8.9051238],[78.1457359,8.9046177],[78.1471413,8.9047979],[78.1472272,8.9056724],[78.1475919,8.9062023],[78.147946,8.9064991],[78.1480426,8.9064143],[78.1496143,8.9074054],[78.1507677,8.9088787],[78.1510144,8.9085342],[78.1511861,8.9087409],[78.151685,8.9086614],[78.1522322,8.9103202],[78.1518996,8.9104368],[78.1525701,8.9125355],[78.1526989,8.9139823],[78.1543511,8.915551],[78.1583959,8.9171461],[78.1616896,8.9163512],[78.1616467,8.9192819],[78.1610566,8.9224192],[78.1594849,8.9231081],[78.1590182,8.9233148],[78.1582403,8.9234791],[78.1582028,8.92323],[78.1579292,8.9232194],[78.1579238,8.9235268],[78.1572533,8.9236222],[78.1568831,8.9234261],[78.1567597,8.92323],[78.1560409,8.9229332],[78.1551558,8.922806],[78.1538469,8.9228166],[78.1536162,8.9228908],[78.1530261,8.9228378],[78.1518298,8.9225517],[78.1511217,8.9224351],[78.1502956,8.9225093],[78.149566,8.9224351],[78.1476349,8.9215713],[78.1474739,8.9216084],[78.1471789,8.9220111],[78.1469053,8.9221436],[78.1461757,8.9221065],[78.1458861,8.9221754],[78.1453979,8.9224616],[78.1446791,8.9226365],[78.1423026,8.92093],[78.1419754,8.9196952],[78.141498,8.918524],[78.1414175,8.9185505],[78.1411761,8.9181266],[78.1392878,8.9168123],[78.1395265,8.9167672],[78.1393844,8.9159829],[78.1390893,8.9160306],[78.1390411,8.9156384],[78.1396955,8.9155112],[78.1395882,8.9148355],[78.1402427,8.9147428],[78.1401944,8.9138498],[78.1401998,8.9128323],[78.1401515,8.9127316],[78.1393468,8.9129276],[78.1393146,8.9127581],[78.1386977,8.9128641],[78.1387997,8.9139823],[78.1384456,8.9140088],[78.1383544,8.91288],[78.1370616,8.9129223],[78.1363374,8.9130283],[78.1365091,8.9137968],[78.135066,8.9140035],[78.1350714,8.9142208],[78.1345564,8.9141466],[78.1343901,8.9140353],[78.1334406,8.9125461],[78.1328934,8.9117829],[78.1307262,8.9104739],[78.1288218,8.9086508],[78.1284732,8.9064885],[78.1293422,8.9062977],[78.1292832,8.9059639],[78.1306082,8.9056512],[78.1304043,8.9047714],[78.1307638,8.9045223],[78.1308335,8.9047237],[78.1324375,8.9043527],[78.1323785,8.9039764],[78.1342506,8.9036691],[78.1353396,8.9032769],[78.135345,8.9036956],[78.1364071,8.90342],[78.1365144,8.9035313],[78.1378072,8.9032557],[78.1377214,8.9024713],[78.1381425,8.9023335],[78.1381814,8.9024779],[78.1382833,8.9024779],[78.1384,8.903571],[78.1389499,8.9034465],[78.1397143,8.9033988],[78.1405324,8.903253],[78.1405216,8.9030251],[78.141439,8.9029509],[78.1415141,8.9033299]]]]}},
{"type":"Feature","properties":{"id":"way/822892679","cables":null,"capacity":null,"name":"SEPC","voltage":null},"geometry":{"type":"MultiPolygon","coordinates":[[[[78.1599408,8.7540949],[78.1611693,8.7552189],[78.1614268,8.7567882],[78.1538415,8.7579016],[78.1534767,8.7553673],[78.153702,8.7551128],[78.1599408,8.7540949]]]]}},
{"type":"Feature","properties":{"id":"way/834348624","cables":null,"capacity":null,"name":"TuticorinTPS","voltage":"220000"},"geometry":{"type":"MultiPolygon","coordinates":[[[[78.1749205,8.766641],[78.1746413,8.7649442],[78.1781039,8.7643877],[78.178383,8.7660845],[78.1749205,8.766641]]]]}},
{"type":"Feature","properties":{"id":"way/986411990","cables":null,"capacity":null,"name":"Arasadi","voltage":null},"geometry":{"type":"MultiPolygon","coordinates":[[[[78.0624318,8.887197],[78.0646044,8.887038],[78.0669594,8.8867491],[78.0673992,8.8876396],[78.0651247,8.8880185],[78.0649692,8.8871599],[78.0647922,8.8871599],[78.0646741,8.8874514],[78.0638051,8.8893223],[78.0629468,8.8893329],[78.0629361,8.8882411],[78.0624318,8.887197]]]]}},
{"type":"Feature","properties":{"id":"way/1011035031","cables":null,"capacity":null,"name":"Orange Sironj","voltage":"220000"},"geometry":{"type":"MultiPolygon","coordinates":[[[[78.0302311,8.8553262],[78.031532,8.8551762],[78.0316437,8.8560534],[78.0303341,8.8561845],[78.0302585,8.8556822],[78.0301807,8.8556863],[78.0301594,8.8555293],[78.0302485,8.8555064],[78.0302311,8.8553262]]]]}},
{"type":"Feature","properties":{"id":"way/1182706893","cables":null,"capacity":null,"name":"SEPC","voltage":"400000"},"geometry":{"type":"MultiPolygon","coordinates":[[[[78.156245,8.7551984],[78.1563783,8.7559874],[78.1557148,8.7560969],[78.1555815,8.7553079],[78.156245,8.7551984]]]]}},
{"type":"Feature","properties":{"id":"way/1182706895","cables":null,"capacity":null,"name":"Ottapidaram","voltage":"400000;230000;110000"},"geometry":{"type":"MultiPolygon","coordinates":[[[[78.0468589,8.8949031],[78.0473685,8.8947918],[78.0472666,8.8940392],[78.0502117,8.8937159],[78.0502063,8.8934138],[78.0508178,8.893329],[78.0508876,8.8935887],[78.051762,8.8934456],[78.0523682,8.8978022],[78.0518585,8.8978817],[78.0519068,8.8989204],[78.0510324,8.898984],[78.0509895,8.8983215],[78.0509198,8.8977068],[78.0496967,8.8978658],[78.049466,8.897887],[78.0473953,8.8981413],[78.0472666,8.8969913],[78.0468589,8.8949031]]]]}},
{"type":"Feature","properties":{"id":"way/1182706896","cables":null,"capacity":null,"name":"Renew Solar","voltage":"230000"},"geometry":{"type":"MultiPolygon","coordinates":[[[[77.83228,8.915262],[77.8311991,8.9152596],[77.8312007,8.9145269],[77.8322817,8.9145293],[77.83228,8.915262]]]]}},
{"type":"Feature","properties":{"id":"way/1200990449","cables":null,"capacity":null,"name":"Srimulakarai","voltage":"110000"},"geometry":{"type":"MultiPolygon","coordinates":[[[[77.9524863,8.6593249],[77.9521012,8.6587766],[77.9528499,8.6582162],[77.9532042,8.6587583],[77.9524863,8.6593249]]]]}},
{"type":"Feature","properties":{"id":"way/1201228618","cables":null,"capacity":null,"name":"Arasadi","voltage":"110000"},"geometry":{"type":"MultiPolygon","coordinates":[[[[78.1330777,8.8863849],[78.1328416,8.8851818],[78.1338501,8.885256],[78.133877,8.8863876],[78.1330777,8.8863849]]]]}},
{"type":"Feature","properties":{"id":"way/1201229513","cables":null,"capacity":null,"name":"Kombukaranatham","voltage":"110000"},"geometry":{"type":"MultiPolygon","coordinates":[[[[77.9477067,8.768988],[77.9474974,8.7677886],[77.9478348,8.7675536],[77.9480462,8.7675435],[77.9483633,8.7677002],[77.9484527,8.7689277],[77.9477067,8.768988]]]]}}
]
}
